[{"OBJECT_NAME":"OBJECT C","OBJECT_ID":"2024-092C","EPOCH":"2026-03-09T23:10:26.961312","MEAN_MOTION":15.27308901,"ECCENTRICITY":0.00097974,"INCLINATION":97.6475,"RA_OF_ASC_NODE":197.1606,"ARG_OF_PERICENTER":169.1353,"MEAN_ANOMALY":191.0098,"EPHEMERIS_TYPE":0,"CLASSIFICATION_TYPE":"U","NORAD_CAT_ID":59775,"ELEMENT_SET_NO":999,"REV_AT_EPOCH":10042,"BSTAR":0.00057925748,"MEAN_MOTION_DOT":0.00015454,"MEAN_MOTION_DDOT":0},{"OBJECT_NAME":"STARLINK-35772","OBJECT_ID":"2025-288T","EPOCH":"2026-03-09T22:00:01.999584","MEAN_MOTION":15.28420626,"ECCENTRICITY":0.0001878,"INCLINATION":43.0027,"RA_OF_ASC_NODE":22.309,"ARG_OF_PERICENTER":249.4274,"MEAN_ANOMALY":17.4897,"EPHEMERIS_TYPE":0,"CLASSIFICATION_TYPE":"U","NORAD_CAT_ID":66976,"ELEMENT_SET_NO":999,"REV_AT_EPOCH":585,"BSTAR":0.0010599511,"MEAN_MOTION_DOT":0.00029784,"MEAN_MOTION_DDOT":0}]
